FLOCK 3P-19             
1 41955U 17008H   17345.84441073  .00001534  00000-0  67052-4 0  9998
2 41955  97.4748  46.5464 0007661 293.3488  66.6943 15.23615171 45499
